CCSDS_OMM_VERS = 2.0
CREATION_DATE  = 
ORIGINATOR     = 

OBJECT_NAME    = SL-14 R/B
OBJECT_ID      = 1991-042B
CENTER_NAME    = EARTH
REF_FRAME      = TEME
TIME_SYSTEM    = UTC
MEAN_ELEMENT_THEORY = SGP/SGP4

EPOCH          = 2026-01-03T23:58:50.535264
MEAN_MOTION    = 14.81764326
ECCENTRICITY   = .00185704
INCLINATION    = 82.4937
RA_OF_ASC_NODE = 280.8521
ARG_OF_PERICENTER = 93.2518
MEAN_ANOMALY   = 267.0821

EPHEMERIS_TYPE = 0
CLASSIFICATION_TYPE = U
NORAD_CAT_ID   = 21423
ELEMENT_SET_NO = 999
REV_AT_EPOCH   = 84349
BSTAR          = .93034938E-4
MEAN_MOTION_DOT = .759E-5
MEAN_MOTION_DDOT = 0

CCSDS_OMM_VERS = 2.0
CREATION_DATE  = 
ORIGINATOR     = 

OBJECT_NAME    = ERS-1
OBJECT_ID      = 1991-050A
CENTER_NAME    = EARTH
REF_FRAME      = TEME
TIME_SYSTEM    = UTC
MEAN_ELEMENT_THEORY = SGP/SGP4

EPOCH          = 2026-01-03T23:33:22.114944
MEAN_MOTION    = 14.39386697
ECCENTRICITY   = .00325709
INCLINATION    = 98.7895
RA_OF_ASC_NODE = 20.5920
ARG_OF_PERICENTER = 35.8010
MEAN_ANOMALY   = 324.5352

EPHEMERIS_TYPE = 0
CLASSIFICATION_TYPE = U
NORAD_CAT_ID   = 21574
ELEMENT_SET_NO = 999
REV_AT_EPOCH   = 80642
BSTAR          = .21358955E-3
MEAN_MOTION_DOT = .622E-5
MEAN_MOTION_DDOT = 0

CCSDS_OMM_VERS = 2.0
CREATION_DATE  = 
ORIGINATOR     = 

OBJECT_NAME    = ARIANE 40 R/B
OBJECT_ID      = 1991-050F
CENTER_NAME    = EARTH
REF_FRAME      = TEME
TIME_SYSTEM    = UTC
MEAN_ELEMENT_THEORY = SGP/SGP4

EPOCH          = 2026-01-03T21:48:42.763392
MEAN_MOTION    = 14.42835582
ECCENTRICITY   = .00019929
INCLINATION    = 98.2132
RA_OF_ASC_NODE = 58.5360
ARG_OF_PERICENTER = 268.9094
MEAN_ANOMALY   = 91.1868

EPHEMERIS_TYPE = 0
CLASSIFICATION_TYPE = U
NORAD_CAT_ID   = 21610
ELEMENT_SET_NO = 999
REV_AT_EPOCH   = 80965
BSTAR          = .20057876E-3
MEAN_MOTION_DOT = .627E-5
MEAN_MOTION_DDOT = 0

CCSDS_OMM_VERS = 2.0
CREATION_DATE  = 
ORIGINATOR     = 

OBJECT_NAME    = INTERCOSMOS 25
OBJECT_ID      = 1991-086A
CENTER_NAME    = EARTH
REF_FRAME      = TEME
TIME_SYSTEM    = UTC
MEAN_ELEMENT_THEORY = SGP/SGP4

EPOCH          = 2026-01-03T22:14:48.058368
MEAN_MOTION    = 12.11822435
ECCENTRICITY   = .14859534
INCLINATION    = 82.6078
RA_OF_ASC_NODE = 349.1536
ARG_OF_PERICENTER = 256.5416
MEAN_ANOMALY   = 86.6319

EPHEMERIS_TYPE = 0
CLASSIFICATION_TYPE = U
NORAD_CAT_ID   = 21819
ELEMENT_SET_NO = 999
REV_AT_EPOCH   = 48884
BSTAR          = .42470852E-3
MEAN_MOTION_DOT = .2132E-4
MEAN_MOTION_DDOT = 0

CCSDS_OMM_VERS = 2.0
CREATION_DATE  = 
ORIGINATOR     = 

OBJECT_NAME    = SL-8 R/B
OBJECT_ID      = 1992-008B
CENTER_NAME    = EARTH
REF_FRAME      = TEME
TIME_SYSTEM    = UTC
MEAN_ELEMENT_THEORY = SGP/SGP4

EPOCH          = 2026-01-03T22:20:13.172928
MEAN_MOTION    = 13.75964350
ECCENTRICITY   = .00338786
INCLINATION    = 82.9281
RA_OF_ASC_NODE = 315.9414
ARG_OF_PERICENTER = 317.4034
MEAN_ANOMALY   = 102.8744

EPHEMERIS_TYPE = 0
CLASSIFICATION_TYPE = U
NORAD_CAT_ID   = 21876
ELEMENT_SET_NO = 999
REV_AT_EPOCH   = 70051
BSTAR          = .12420243E-3
MEAN_MOTION_DOT = .136E-5
MEAN_MOTION_DDOT = 0

CCSDS_OMM_VERS = 2.0
CREATION_DATE  = 
ORIGINATOR     = 

OBJECT_NAME    = SL-8 R/B
OBJECT_ID      = 1992-020B
CENTER_NAME    = EARTH
REF_FRAME      = TEME
TIME_SYSTEM    = UTC
MEAN_ELEMENT_THEORY = SGP/SGP4

EPOCH          = 2026-01-03T23:07:42.739104
MEAN_MOTION    = 13.75534225
ECCENTRICITY   = .00300712
INCLINATION    = 82.9291
RA_OF_ASC_NODE = 201.8138
ARG_OF_PERICENTER = 117.4230
MEAN_ANOMALY   = 351.5393

EPHEMERIS_TYPE = 0
CLASSIFICATION_TYPE = U
NORAD_CAT_ID   = 21938
ELEMENT_SET_NO = 999
REV_AT_EPOCH   = 69223
BSTAR          = .20564396E-3
MEAN_MOTION_DOT = .214E-5
MEAN_MOTION_DDOT = 0

CCSDS_OMM_VERS = 2.0
CREATION_DATE  = 
ORIGINATOR     = 

OBJECT_NAME    = USA 81
OBJECT_ID      = 1992-023A
CENTER_NAME    = EARTH
REF_FRAME      = TEME
TIME_SYSTEM    = UTC
MEAN_ELEMENT_THEORY = SGP/SGP4

EPOCH          = 2026-01-03T23:16:40.781280
MEAN_MOTION    = 14.32337717
ECCENTRICITY   = .00011833
INCLINATION    = 85.0090
RA_OF_ASC_NODE = 168.7552
ARG_OF_PERICENTER = 111.2903
MEAN_ANOMALY   = 248.8416

EPHEMERIS_TYPE = 0
CLASSIFICATION_TYPE = U
NORAD_CAT_ID   = 21949
ELEMENT_SET_NO = 999
REV_AT_EPOCH   = 8552
BSTAR          = .1206859E-3
MEAN_MOTION_DOT = .346E-5
MEAN_MOTION_DDOT = 0

CCSDS_OMM_VERS = 2.0
CREATION_DATE  = 
ORIGINATOR     = 

OBJECT_NAME    = COSMOS 2219
OBJECT_ID      = 1992-076A
CENTER_NAME    = EARTH
REF_FRAME      = TEME
TIME_SYSTEM    = UTC
MEAN_ELEMENT_THEORY = SGP/SGP4

EPOCH          = 2026-01-03T20:46:59.889216
MEAN_MOTION    = 14.14077041
ECCENTRICITY   = .00201161
INCLINATION    = 71.0605
RA_OF_ASC_NODE = 153.5797
ARG_OF_PERICENTER = 296.3089
MEAN_ANOMALY   = 63.5967

EPHEMERIS_TYPE = 0
CLASSIFICATION_TYPE = U
NORAD_CAT_ID   = 22219
ELEMENT_SET_NO = 999
REV_AT_EPOCH   = 70921
BSTAR          = .20892344E-3
MEAN_MOTION_DOT = .351E-5
MEAN_MOTION_DDOT = 0

CCSDS_OMM_VERS = 2.0
CREATION_DATE  = 
ORIGINATOR     = 

OBJECT_NAME    = SL-16 R/B
OBJECT_ID      = 1992-076B
CENTER_NAME    = EARTH
REF_FRAME      = TEME
TIME_SYSTEM    = UTC
MEAN_ELEMENT_THEORY = SGP/SGP4

EPOCH          = 2026-01-03T22:56:10.251744
MEAN_MOTION    = 14.16845432
ECCENTRICITY   = .00137189
INCLINATION    = 71.0011
RA_OF_ASC_NODE = 324.7337
ARG_OF_PERICENTER = 203.8052
MEAN_ANOMALY   = 213.9394

EPHEMERIS_TYPE = 0
CLASSIFICATION_TYPE = U
NORAD_CAT_ID   = 22220
ELEMENT_SET_NO = 999
REV_AT_EPOCH   = 71266
BSTAR          = -.12399486E-4
MEAN_MOTION_DOT = -.73E-6
MEAN_MOTION_DDOT = 0

CCSDS_OMM_VERS = 2.0
CREATION_DATE  = 
ORIGINATOR     = 

OBJECT_NAME    = COSMOS 2221
OBJECT_ID      = 1992-080A
CENTER_NAME    = EARTH
REF_FRAME      = TEME
TIME_SYSTEM    = UTC
MEAN_ELEMENT_THEORY = SGP/SGP4

EPOCH          = 2026-01-03T23:02:38.592960
MEAN_MOTION    = 14.95877423
ECCENTRICITY   = .0015975
INCLINATION    = 82.5048
RA_OF_ASC_NODE = 341.0544
ARG_OF_PERICENTER = 54.4147
MEAN_ANOMALY   = 305.8560

EPHEMERIS_TYPE = 0
CLASSIFICATION_TYPE = U
NORAD_CAT_ID   = 22236
ELEMENT_SET_NO = 999
REV_AT_EPOCH   = 77111
BSTAR          = .32905459E-3
MEAN_MOTION_DOT = .3712E-4
MEAN_MOTION_DDOT = 0

CCSDS_OMM_VERS = 2.0
CREATION_DATE  = 
ORIGINATOR     = 

OBJECT_NAME    = SL-16 R/B
OBJECT_ID      = 1992-093B
CENTER_NAME    = EARTH
REF_FRAME      = TEME
TIME_SYSTEM    = UTC
MEAN_ELEMENT_THEORY = SGP/SGP4

EPOCH          = 2026-01-03T19:02:29.196672
MEAN_MOTION    = 14.15434314
ECCENTRICITY   = .00030787
INCLINATION    = 71.0210
RA_OF_ASC_NODE = 140.5011
ARG_OF_PERICENTER = 10.2419
MEAN_ANOMALY   = 349.8766

EPHEMERIS_TYPE = 0
CLASSIFICATION_TYPE = U
NORAD_CAT_ID   = 22285
ELEMENT_SET_NO = 999
REV_AT_EPOCH   = 70397
BSTAR          = -.34821099E-4
MEAN_MOTION_DOT = -.116E-5
MEAN_MOTION_DDOT = 0

CCSDS_OMM_VERS = 2.0
CREATION_DATE  = 
ORIGINATOR     = 

OBJECT_NAME    = COSMOS 2228
OBJECT_ID      = 1992-094A
CENTER_NAME    = EARTH
REF_FRAME      = TEME
TIME_SYSTEM    = UTC
MEAN_ELEMENT_THEORY = SGP/SGP4

EPOCH          = 2026-01-03T22:50:47.921856
MEAN_MOTION    = 14.96858924
ECCENTRICITY   = .00185337
INCLINATION    = 82.5198
RA_OF_ASC_NODE = 299.2812
ARG_OF_PERICENTER = 154.5087
MEAN_ANOMALY   = 205.7053

EPHEMERIS_TYPE = 0
CLASSIFICATION_TYPE = U
NORAD_CAT_ID   = 22286
ELEMENT_SET_NO = 999
REV_AT_EPOCH   = 76637
BSTAR          = .39406646E-3
MEAN_MOTION_DOT = .4558E-4
MEAN_MOTION_DDOT = 0

