SL-14 R/B               
1 21423U 91042B   26003.99919601  .00000759  00000+0  93035-4 0  9997
2 21423  82.4937 280.8521 0018570  93.2518 267.0821 14.81764326843498
ERS-1                   
1 21574U 91050A   26003.98150596  .00000622  00000+0  21359-3 0  9990
2 21574  98.7895  20.5920 0032570  35.8010 324.5352 14.39386697806429
ARIANE 40 R/B           
1 21610U 91050F   26003.90882828  .00000627  00000+0  20058-3 0  9993
2 21610  98.2132  58.5360 0001992 268.9094  91.1868 14.42835582809656
INTERCOSMOS 25          
1 21819U 91086A   26003.92694512  .00002132  00000+0  42471-3 0  9992
2 21819  82.6078 349.1536 1485953 256.5416  86.6319 12.11822435488843
SL-8 R/B                
1 21876U 92008B   26003.93070802  .00000136  00000+0  12420-3 0  9994
2 21876  82.9281 315.9414 0033878 317.4034 102.8744 13.75964350700516
SL-8 R/B                
1 21938U 92020B   26003.96368911  .00000214  00000+0  20564-3 0  9996
2 21938  82.9291 201.8138 0030071 117.4230 351.5393 13.75534225692236
USA 81                  
1 21949U 92023A   26003.96991645  .00000346  00000+0  12069-3 0  9994
2 21949  85.0090 168.7552 0001183 111.2903 248.8416 14.32337717 85524
COSMOS 2219             
1 22219U 92076A   26003.86597094  .00000351  00000+0  20892-3 0  9991
2 22219  71.0605 153.5797 0020116 296.3089  63.5967 14.14077041709215
SL-16 R/B               
1 22220U 92076B   26003.95567421 -.00000073  00000+0 -12399-4 0  9991
2 22220  71.0011 324.7337 0013718 203.8052 213.9394 14.16845432712660
COSMOS 2221             
1 22236U 92080A   26003.96016890  .00003712  00000+0  32905-3 0  9998
2 22236  82.5048 341.0544 0015975  54.4147 305.8560 14.95877423771111
SL-16 R/B               
1 22285U 92093B   26003.79339348 -.00000116  00000+0 -34821-4 0  9990
2 22285  71.0210 140.5011 0003078  10.2419 349.8766 14.15434314703978
COSMOS 2228             
1 22286U 92094A   26003.95194354  .00004558  00000+0  39407-3 0  9992
2 22286  82.5198 299.2812 0018533 154.5087 205.7053 14.96858924766375
